GLOBALSTAR M075 [+]     
1 37192U 10054E   23303.86219997 -.00000063  00000+0  22822-3 0  9992
2 37192  51.9937 194.1740 0001027  71.3524   5.5535 12.62255149600822
GLOBALSTAR M073 [+]     
1 37193U 10054F   23303.76860836 -.00000111  00000+0 -41874-4 0  9990
2 37193  52.0043 107.8190 0000950 100.2461 272.6226 12.62269174602648
GLOBALSTAR M083 [+]     
1 37739U 11033A   23303.62307552 -.00000102  00000+0  91815-5 0  9990
2 37739  51.9868  57.8043 0000634  87.1959 285.4384 12.62262349571641
GLOBALSTAR M088 [+]     
1 37740U 11033B   23303.79003611 -.00000082  00000+0  12207-3 0  9992
2 37740  51.9745 323.2939 0000547  55.1287 115.7524 12.62266897567203
GLOBALSTAR M091 [+]     
1 37741U 11033C   23303.72434074 -.00000092  00000+0  63394-4 0  9992
2 37741  51.9995 285.9841 0000758  46.2701 125.1872 12.62267770567980
GLOBALSTAR M085 [+]     
1 37742U 11033D   23303.83880618 -.00000074  00000+0  16677-3 0  9995
2 37742  51.9860 237.1998 0000904  52.4655 339.9798 12.62264358568515
GLOBALSTAR M081 [+]     
1 37743U 11033E   23303.58021321 -.00000085  00000+0  10308-3 0  9993
2 37743  51.9954 240.4067 0001032  60.9078 115.8258 12.62265991568628
GLOBALSTAR M089 [+]     
1 37744U 11033F   23303.91513590 -.00000049  00000+0  30431-3 0  9994
2 37744  51.9919 193.7276 0000960  90.6335 348.6738 12.62269056569511
